[{"OBJECT_NAME":"SEEDS II (CO-66)","OBJECT_ID":"2008-021J","EPOCH":"2026-03-09T22:06:22.421376","MEAN_MOTION":15.29097236,"ECCENTRICITY":0.00014475,"INCLINATION":97.7519,"RA_OF_ASC_NODE":62.3611,"ARG_OF_PERICENTER":359.2618,"MEAN_ANOMALY":0.8619,"EPHEMERIS_TYPE":0,"CLASSIFICATION_TYPE":"U","NORAD_CAT_ID":32791,"ELEMENT_SET_NO":999,"REV_AT_EPOCH":97210,"BSTAR":0.00084213052,"MEAN_MOTION_DOT":0.00023758,"MEAN_MOTION_DDOT":0},{"OBJECT_NAME":"STARLINK-31759","OBJECT_ID":"2024-090L","EPOCH":"2026-03-09T08:16:03.036576","MEAN_MOTION":15.27570206,"ECCENTRICITY":0.0002695,"INCLINATION":43.0006,"RA_OF_ASC_NODE":185.7591,"ARG_OF_PERICENTER":291.1394,"MEAN_ANOMALY":68.9169,"EPHEMERIS_TYPE":0,"CLASSIFICATION_TYPE":"U","NORAD_CAT_ID":59740,"ELEMENT_SET_NO":999,"REV_AT_EPOCH":10338,"BSTAR":2.8101046e-5,"MEAN_MOTION_DOT":5.1e-6,"MEAN_MOTION_DDOT":0}]
