SEEDS II (CO-66)        
1 32791U 08021J   26068.92109284  .00023758  00000+0  84213-3 0  9995
2 32791  97.7519  62.3611 0001448 359.2618   0.8619 15.29097235972108
STARLINK-31759          
1 59740U 24090L   26068.34447959  .00000510  00000+0  28101-4 0  9998
2 59740  43.0006 185.7591 0002695 291.1394  68.9169 15.27570206103386
